{
  "type": "FeatureCollection",
  "features": [
    {
      "type": "Feature",
      "properties": {
        "norad_id": 24946,
        "name": "IRIDIUM 33",
        "group": "iridium-33-debris",
        "lat": -77.89541610057395,
        "lon": 48.50217383767116,
        "alt_km": 783.5204989894273,
        "timestamp": "2025-12-18T21:31:51.388918+00:00",
        "meta_object_name": "IRIDIUM 33",
        "meta_object_id": "1997-051C",
        "meta_epoch": "2025-12-18T06:50:06.168768",
        "meta_mean_motion": 14.35041379,
        "meta_eccentricity": 0.00076997,
        "meta_inclination": 86.3868,
        "meta_ra_of_asc_node": 65.8942,
        "meta_arg_of_pericenter": 181.3776,
        "meta_mean_anomaly": 178.74,
        "meta_ephemeris_type": 0,
        "meta_classification_type": "U",
        "meta_norad_cat_id": 24946,
        "meta_element_set_no": 999,
        "meta_rev_at_epoch": 47914,
        "meta_bstar": 9.6754655e-05,
        "meta_mean_motion_dot": 2.95e-06,
        "meta_mean_motion_ddot": 0,
        "tle_line1": "1 24946U 97051C   25352.28479362  .00000295  00000+0  96755-4 0  9996",
        "tle_line2": "2 24946  86.3868  65.8942 0007699 181.3776 178.7400 14.35041379479143"
      },
      "geometry": {
        "type": "Point",
        "coordinates": [
          48.50217383767116,
          -77.89541610057395
        ]
      }
    },
    {
      "type": "Feature",
      "properties": {
        "norad_id": 33773,
        "name": "IRIDIUM 33 DEB",
        "group": "iridium-33-debris",
        "lat": 60.148178999311355,
        "lon": 64.27726768923344,
        "alt_km": 738.4692758093261,
        "timestamp": "2025-12-18T21:31:51.388962+00:00",
        "meta_object_name": "IRIDIUM 33 DEB",
        "meta_object_id": "1997-051L",
        "meta_epoch": "2025-12-18T04:36:45.675648",
        "meta_mean_motion": 14.43268549,
        "meta_eccentricity": 0.00129399,
        "meta_inclination": 86.4005,
        "meta_ra_of_asc_node": 58.279,
        "meta_arg_of_pericenter": 130.4918,
        "meta_mean_anomaly": 229.7413,
        "meta_ephemeris_type": 0,
        "meta_classification_type": "U",
        "meta_norad_cat_id": 33773,
        "meta_element_set_no": 999,
        "meta_rev_at_epoch": 88426,
        "meta_bstar": 0.00023660317,
        "meta_mean_motion_dot": 8.17e-06,
        "meta_mean_motion_ddot": 0,
        "tle_line1": "1 33773U 97051L   25352.19219532  .00000817  00000+0  23660-3 0  9999",
        "tle_line2": "2 33773  86.4005  58.2790 0012939 130.4918 229.7413 14.43268549884261"
      },
      "geometry": {
        "type": "Point",
        "coordinates": [
          64.27726768923344,
          60.148178999311355
        ]
      }
    },
    {
      "type": "Feature",
      "properties": {
        "norad_id": 33775,
        "name": "IRIDIUM 33 DEB",
        "group": "iridium-33-debris",
        "lat": 75.15559489434503,
        "lon": -146.9596648845548,
        "alt_km": 737.5256828047559,
        "timestamp": "2025-12-18T21:31:51.388979+00:00",
        "meta_object_name": "IRIDIUM 33 DEB",
        "meta_object_id": "1997-051N",
        "meta_epoch": "2025-12-18T06:22:37.580736",
        "meta_mean_motion": 14.41480224,
        "meta_eccentricity": 0.00148381,
        "meta_inclination": 86.3632,
        "meta_ra_of_asc_node": 47.1944,
        "meta_arg_of_pericenter": 137.9325,
        "meta_mean_anomaly": 292.0202,
        "meta_ephemeris_type": 0,
        "meta_classification_type": "U",
        "meta_norad_cat_id": 33775,
        "meta_element_set_no": 999,
        "meta_rev_at_epoch": 88220,
        "meta_bstar": 0.00025383462,
        "meta_mean_motion_dot": 8.44e-06,
        "meta_mean_motion_ddot": 0,
        "tle_line1": "1 33775U 97051N   25352.26571274  .00000844  00000+0  25383-3 0  9997",
        "tle_line2": "2 33775  86.3632  47.1944 0014838 137.9325 292.0202 14.41480224882205"
      },
      "geometry": {
        "type": "Point",
        "coordinates": [
          -146.9596648845548,
          75.15559489434503
        ]
      }
    },
    {
      "type": "Feature",
      "properties": {
        "norad_id": 33776,
        "name": "IRIDIUM 33 DEB",
        "group": "iridium-33-debris",
        "lat": -81.89775038373756,
        "lon": -75.59213397481993,
        "alt_km": 772.164161859394,
        "timestamp": "2025-12-18T21:31:51.388993+00:00",
        "meta_object_name": "IRIDIUM 33 DEB",
        "meta_object_id": "1997-051P",
        "meta_epoch": "2025-12-18T07:14:00.599712",
        "meta_mean_motion": 14.38244956,
        "meta_eccentricity": 0.00149937,
        "meta_inclination": 86.4036,
        "meta_ra_of_asc_node": 78.4405,
        "meta_arg_of_pericenter": 172.3742,
        "meta_mean_anomaly": 247.646,
        "meta_ephemeris_type": 0,
        "meta_classification_type": "U",
        "meta_norad_cat_id": 33776,
        "meta_element_set_no": 999,
        "meta_rev_at_epoch": 88162,
        "meta_bstar": 0.00022721058,
        "meta_mean_motion_dot": 7.11e-06,
        "meta_mean_motion_ddot": 0,
        "tle_line1": "1 33776U 97051P   25352.30139583  .00000711  00000+0  22721-3 0  9992",
        "tle_line2": "2 33776  86.4036  78.4405 0014993 172.3742 247.6460 14.38244956881625"
      },
      "geometry": {
        "type": "Point",
        "coordinates": [
          -75.59213397481993,
          -81.89775038373756
        ]
      }
    },
    {
      "type": "Feature",
      "properties": {
        "norad_id": 33777,
        "name": "IRIDIUM 33 DEB",
        "group": "iridium-33-debris",
        "lat": 74.81775225949139,
        "lon": 46.02356621065581,
        "alt_km": 703.5084812996247,
        "timestamp": "2025-12-18T21:31:51.389007+00:00",
        "meta_object_name": "IRIDIUM 33 DEB",
        "meta_object_id": "1997-051Q",
        "meta_epoch": "2025-12-18T04:41:17.174688",
        "meta_mean_motion": 14.55652689,
        "meta_eccentricity": 0.00055596,
        "meta_inclination": 86.3781,
        "meta_ra_of_asc_node": 32.8305,
        "meta_arg_of_pericenter": 224.681,
        "meta_mean_anomaly": 135.395,
        "meta_ephemeris_type": 0,
        "meta_classification_type": "U",
        "meta_norad_cat_id": 33777,
        "meta_element_set_no": 999,
        "meta_rev_at_epoch": 88613,
        "meta_bstar": 0.00065915715,
        "meta_mean_motion_dot": 2.898e-05,
        "meta_mean_motion_ddot": 0,
        "tle_line1": "1 33777U 97051Q   25352.19533767  .00002898  00000+0  65916-3 0  9993",
        "tle_line2": "2 33777  86.3781  32.8305 0005559 224.6810 135.3950 14.55652689886133"
      },
      "geometry": {
        "type": "Point",
        "coordinates": [
          46.02356621065581,
          74.81775225949139
        ]
      }
    },
    {
      "type": "Feature",
      "properties": {
        "norad_id": 33850,
        "name": "IRIDIUM 33 DEB",
        "group": "iridium-33-debris",
        "lat": 79.08475688022463,
        "lon": -171.84561361013917,
        "alt_km": 737.3317045189278,
        "timestamp": "2025-12-18T21:31:51.389019+00:00",
        "meta_object_name": "IRIDIUM 33 DEB",
        "meta_object_id": "1997-051T",
        "meta_epoch": "2025-12-18T04:44:45.148992",
        "meta_mean_motion": 14.42158096,
        "meta_eccentricity": 0.00127838,
        "meta_inclination": 86.3413,
        "meta_ra_of_asc_node": 27.8327,
        "meta_arg_of_pericenter": 144.545,
        "meta_mean_anomaly": 287.1244,
        "meta_ephemeris_type": 0,
        "meta_classification_type": "U",
        "meta_norad_cat_id": 33850,
        "meta_element_set_no": 999,
        "meta_rev_at_epoch": 88231,
        "meta_bstar": 0.00027234125,
        "meta_mean_motion_dot": 9.16e-06,
        "meta_mean_motion_ddot": 0,
        "tle_line1": "1 33850U 97051T   25352.19774478  .00000916  00000+0  27234-3 0  9991",
        "tle_line2": "2 33850  86.3413  27.8327 0012783 144.5450 287.1244 14.42158096882319"
      },
      "geometry": {
        "type": "Point",
        "coordinates": [
          -171.84561361013917,
          79.08475688022463
        ]
      }
    },
    {
      "type": "Feature",
      "properties": {
        "norad_id": 33853,
        "name": "IRIDIUM 33 DEB",
        "group": "iridium-33-debris",
        "lat": -71.04706733039671,
        "lon": 178.8679316353286,
        "alt_km": 779.2751053345637,
        "timestamp": "2025-12-18T21:31:51.389032+00:00",
        "meta_object_name": "IRIDIUM 33 DEB",
        "meta_object_id": "1997-051W",
        "meta_epoch": "2025-12-17T23:59:57.054624",
        "meta_mean_motion": 13.9909182,
        "meta_eccentricity": 0.0207121,
        "meta_inclination": 86,
        "meta_ra_of_asc_node": 347.5046,
        "meta_arg_of_pericenter": 219.5564,
        "meta_mean_anomaly": 194.5399,
        "meta_ephemeris_type": 0,
        "meta_classification_type": "U",
        "meta_norad_cat_id": 33853,
        "meta_element_set_no": 999,
        "meta_rev_at_epoch": 85419,
        "meta_bstar": 0.0013818561,
        "meta_mean_motion_dot": 2.42e-05,
        "meta_mean_motion_ddot": 0,
        "tle_line1": "1 33853U 97051W   25351.99996591  .00002420  00000+0  13819-2 0  9998",
        "tle_line2": "2 33853  86.0000 347.5046 0207121 219.5564 194.5399 13.99091820854191"
      },
      "geometry": {
        "type": "Point",
        "coordinates": [
          178.8679316353286,
          -71.04706733039671
        ]
      }
    }
  ]
}